EARTHCARE               
1 59908U 24101A   24186.92707155  .00015568  00000+0  23680-3 0  9992
2 59908  96.9818 314.2633 0004596  58.0676 302.1025 15.54604403  5743
